[{"OBJECT_NAME":"WILDFIRE 4","OBJECT_ID":"2023-133A","EPOCH":"2023-09-15T11:50:45.803616","MEAN_MOTION":13.86060212,"ECCENTRICITY":0.0009629,"INCLINATION":80.9984,"RA_OF_ASC_NODE":252.7538,"ARG_OF_PERICENTER":183.5877,"MEAN_ANOMALY":176.5213,"EPHEMERIS_TYPE":0,"CLASSIFICATION_TYPE":"U","NORAD_CAT_ID":57756,"ELEMENT_SET_NO":999,"REV_AT_EPOCH":178,"BSTAR":5.1559e-5,"MEAN_MOTION_DOT":7.0e-7,"MEAN_MOTION_DDOT":0},{"OBJECT_NAME":"BB4","OBJECT_ID":"2023-133B","EPOCH":"2023-09-15T17:04:15.737664","MEAN_MOTION":13.85938279,"ECCENTRICITY":0.0009108,"INCLINATION":80.9957,"RA_OF_ASC_NODE":252.5405,"ARG_OF_PERICENTER":181.2701,"MEAN_ANOMALY":178.8434,"EPHEMERIS_TYPE":0,"CLASSIFICATION_TYPE":"U","NORAD_CAT_ID":57757,"ELEMENT_SET_NO":999,"REV_AT_EPOCH":181,"BSTAR":6.4783e-5,"MEAN_MOTION_DOT":8.5e-7,"MEAN_MOTION_DDOT":0},{"OBJECT_NAME":"WILDFIRE 3","OBJECT_ID":"2023-133C","EPOCH":"2023-09-15T11:54:11.261952","MEAN_MOTION":13.85803407,"ECCENTRICITY":0.000841,"INCLINATION":80.993,"RA_OF_ASC_NODE":252.7435,"ARG_OF_PERICENTER":182.1822,"MEAN_ANOMALY":177.93,"EPHEMERIS_TYPE":0,"CLASSIFICATION_TYPE":"U","NORAD_CAT_ID":57758,"ELEMENT_SET_NO":999,"REV_AT_EPOCH":178,"BSTAR":6.4566e-5,"MEAN_MOTION_DOT":8.5e-7,"MEAN_MOTION_DDOT":0},{"OBJECT_NAME":"BB3","OBJECT_ID":"2023-133D","EPOCH":"2023-09-15T11:55:11.743680","MEAN_MOTION":13.85728261,"ECCENTRICITY":0.0008053,"INCLINATION":80.9958,"RA_OF_ASC_NODE":252.7511,"ARG_OF_PERICENTER":185.3962,"MEAN_ANOMALY":174.7109,"EPHEMERIS_TYPE":0,"CLASSIFICATION_TYPE":"U","NORAD_CAT_ID":57760,"ELEMENT_SET_NO":999,"REV_AT_EPOCH":178,"BSTAR":8.0556e-5,"MEAN_MOTION_DOT":1.03e-6,"MEAN_MOTION_DDOT":0},{"OBJECT_NAME":"WILDFIRE 7","OBJECT_ID":"2023-133E","EPOCH":"2023-09-15T12:08:00.382272","MEAN_MOTION":13.84768064,"ECCENTRICITY":0.0004633,"INCLINATION":80.9954,"RA_OF_ASC_NODE":252.7621,"ARG_OF_PERICENTER":211.8246,"MEAN_ANOMALY":148.2631,"EPHEMERIS_TYPE":0,"CLASSIFICATION_TYPE":"U","NORAD_CAT_ID":57761,"ELEMENT_SET_NO":999,"REV_AT_EPOCH":178,"BSTAR":5.1783e-5,"MEAN_MOTION_DOT":6.9e-7,"MEAN_MOTION_DDOT":0},{"OBJECT_NAME":"CHECKMATE 10","OBJECT_ID":"2023-133F","EPOCH":"2023-09-15T12:01:57.249984","MEAN_MOTION":13.85221532,"ECCENTRICITY":0.0005576,"INCLINATION":80.9967,"RA_OF_ASC_NODE":252.7583,"ARG_OF_PERICENTER":189.667,"MEAN_ANOMALY":170.438,"EPHEMERIS_TYPE":0,"CLASSIFICATION_TYPE":"U","NORAD_CAT_ID":57762,"ELEMENT_SET_NO":999,"REV_AT_EPOCH":178,"BSTAR":6.9084e-5,"MEAN_MOTION_DOT":8.9e-7,"MEAN_MOTION_DDOT":0},{"OBJECT_NAME":"WILDFIRE 6","OBJECT_ID":"2023-133G","EPOCH":"2023-09-15T12:04:44.303520","MEAN_MOTION":13.85012728,"ECCENTRICITY":0.0004997,"INCLINATION":80.9914,"RA_OF_ASC_NODE":252.7543,"ARG_OF_PERICENTER":198.7492,"MEAN_ANOMALY":161.3481,"EPHEMERIS_TYPE":0,"CLASSIFICATION_TYPE":"U","NORAD_CAT_ID":57763,"ELEMENT_SET_NO":999,"REV_AT_EPOCH":178,"BSTAR":5.1856e-5,"MEAN_MOTION_DOT":7.0e-7,"MEAN_MOTION_DDOT":0},{"OBJECT_NAME":"WILDFIRE 1","OBJECT_ID":"2023-133H","EPOCH":"2023-09-15T11:59:31.970976","MEAN_MOTION":13.85402757,"ECCENTRICITY":0.0006063,"INCLINATION":80.9961,"RA_OF_ASC_NODE":252.7554,"ARG_OF_PERICENTER":182.3549,"MEAN_ANOMALY":177.758,"EPHEMERIS_TYPE":0,"CLASSIFICATION_TYPE":"U","NORAD_CAT_ID":57764,"ELEMENT_SET_NO":999,"REV_AT_EPOCH":178,"BSTAR":5.2618e-5,"MEAN_MOTION_DOT":7.1e-7,"MEAN_MOTION_DDOT":0},{"OBJECT_NAME":"WILDFIRE 9","OBJECT_ID":"2023-133J","EPOCH":"2023-09-15T12:03:58.973760","MEAN_MOTION":13.8506972,"ECCENTRICITY":0.0005149,"INCLINATION":81.0001,"RA_OF_ASC_NODE":252.7646,"ARG_OF_PERICENTER":196.0919,"MEAN_ANOMALY":164.0074,"EPHEMERIS_TYPE":0,"CLASSIFICATION_TYPE":"U","NORAD_CAT_ID":57765,"ELEMENT_SET_NO":999,"REV_AT_EPOCH":178,"BSTAR":8.7321e-5,"MEAN_MOTION_DOT":1.1e-6,"MEAN_MOTION_DDOT":0},{"OBJECT_NAME":"WILDFIRE 10","OBJECT_ID":"2023-133K","EPOCH":"2023-09-15T12:01:00.146496","MEAN_MOTION":13.85292754,"ECCENTRICITY":0.0005753,"INCLINATION":80.999,"RA_OF_ASC_NODE":252.7601,"ARG_OF_PERICENTER":186.4429,"MEAN_ANOMALY":173.6655,"EPHEMERIS_TYPE":0,"CLASSIFICATION_TYPE":"U","NORAD_CAT_ID":57766,"ELEMENT_SET_NO":999,"REV_AT_EPOCH":178,"BSTAR":5.9744e-5,"MEAN_MOTION_DOT":7.9e-7,"MEAN_MOTION_DDOT":0},{"OBJECT_NAME":"WILDFIRE 2","OBJECT_ID":"2023-133L","EPOCH":"2023-09-15T12:06:19.601856","MEAN_MOTION":13.84893815,"ECCENTRICITY":0.0004793,"INCLINATION":80.9924,"RA_OF_ASC_NODE":252.7571,"ARG_OF_PERICENTER":204.7818,"MEAN_ANOMALY":155.3108,"EPHEMERIS_TYPE":0,"CLASSIFICATION_TYPE":"U","NORAD_CAT_ID":57767,"ELEMENT_SET_NO":999,"REV_AT_EPOCH":178,"BSTAR":6.0436e-5,"MEAN_MOTION_DOT":7.9e-7,"MEAN_MOTION_DDOT":0},{"OBJECT_NAME":"WILDFIRE 8","OBJECT_ID":"2023-133M","EPOCH":"2023-09-15T12:03:27.283968","MEAN_MOTION":13.85109394,"ECCENTRICITY":0.0005268,"INCLINATION":80.9914,"RA_OF_ASC_NODE":252.7528,"ARG_OF_PERICENTER":194.7173,"MEAN_ANOMALY":165.383,"EPHEMERIS_TYPE":0,"CLASSIFICATION_TYPE":"U","NORAD_CAT_ID":57768,"ELEMENT_SET_NO":999,"REV_AT_EPOCH":179,"BSTAR":9.419e-5,"MEAN_MOTION_DOT":1.18e-6,"MEAN_MOTION_DDOT":0},{"OBJECT_NAME":"WILDFIRE 5","OBJECT_ID":"2023-133N","EPOCH":"2023-09-15T12:02:41.814240","MEAN_MOTION":13.851658,"ECCENTRICITY":0.0005425,"INCLINATION":81,"RA_OF_ASC_NODE":252.7631,"ARG_OF_PERICENTER":191.9855,"MEAN_ANOMALY":168.1173,"EPHEMERIS_TYPE":0,"CLASSIFICATION_TYPE":"U","NORAD_CAT_ID":57769,"ELEMENT_SET_NO":999,"REV_AT_EPOCH":178,"BSTAR":6.0172e-5,"MEAN_MOTION_DOT":7.9e-7,"MEAN_MOTION_DDOT":0},{"OBJECT_NAME":"STARLINK-30397","OBJECT_ID":"2023-134A","EPOCH":"2023-09-15T20:00:01.000224","MEAN_MOTION":15.76751282,"ECCENTRICITY":0.0007589,"INCLINATION":43.0011,"RA_OF_ASC_NODE":89.7577,"ARG_OF_PERICENTER":205.5929,"MEAN_ANOMALY":1.0856,"EPHEMERIS_TYPE":0,"CLASSIFICATION_TYPE":"U","NORAD_CAT_ID":57771,"ELEMENT_SET_NO":999,"REV_AT_EPOCH":292,"BSTAR":-0.0054344,"MEAN_MOTION_DOT":-0.00821264,"MEAN_MOTION_DDOT":0},{"OBJECT_NAME":"STARLINK-30354","OBJECT_ID":"2023-134B","EPOCH":"2023-09-15T14:00:01.000224","MEAN_MOTION":15.77272557,"ECCENTRICITY":0.0006433,"INCLINATION":43.0012,"RA_OF_ASC_NODE":91.2762,"ARG_OF_PERICENTER":190.0119,"MEAN_ANOMALY":35.8665,"EPHEMERIS_TYPE":0,"CLASSIFICATION_TYPE":"U","NORAD_CAT_ID":57772,"ELEMENT_SET_NO":999,"REV_AT_EPOCH":305,"BSTAR":-0.0057295,"MEAN_MOTION_DOT":-0.00879506,"MEAN_MOTION_DDOT":0},{"OBJECT_NAME":"STARLINK-30383","OBJECT_ID":"2023-134C","EPOCH":"2023-09-15T20:00:01.000224","MEAN_MOTION":15.76785302,"ECCENTRICITY":0.0004066,"INCLINATION":43.0013,"RA_OF_ASC_NODE":89.7562,"ARG_OF_PERICENTER":200.7716,"MEAN_ANOMALY":6.4639,"EPHEMERIS_TYPE":0,"CLASSIFICATION_TYPE":"U","NORAD_CAT_ID":57773,"ELEMENT_SET_NO":999,"REV_AT_EPOCH":308,"BSTAR":-0.0056608,"MEAN_MOTION_DOT":-0.00851601,"MEAN_MOTION_DDOT":0},{"OBJECT_NAME":"STARLINK-30384","OBJECT_ID":"2023-134D","EPOCH":"2023-09-15T14:00:01.000224","MEAN_MOTION":15.77292377,"ECCENTRICITY":0.0005979,"INCLINATION":43.0013,"RA_OF_ASC_NODE":91.274,"ARG_OF_PERICENTER":198.1243,"MEAN_ANOMALY":28.552,"EPHEMERIS_TYPE":0,"CLASSIFICATION_TYPE":"U","NORAD_CAT_ID":57774,"ELEMENT_SET_NO":999,"REV_AT_EPOCH":281,"BSTAR":-0.0057448,"MEAN_MOTION_DOT":-0.00882072,"MEAN_MOTION_DDOT":0}]
