WILDFIRE 4              
1 57756U 23133A   23258.49358569  .00000070  00000+0  51559-4 0  9996
2 57756  80.9984 252.7538 0009629 183.5877 176.5213 13.86060212  1787
BB4                     
1 57757U 23133B   23258.71129326  .00000085  00000+0  64783-4 0  9998
2 57757  80.9957 252.5405 0009108 181.2701 178.8434 13.85938279  1812
WILDFIRE 3              
1 57758U 23133C   23258.49596368  .00000085  00000+0  64566-4 0  9997
2 57758  80.9930 252.7435 0008410 182.1822 177.9300 13.85803407  1780
BB3                     
1 57760U 23133D   23258.49666370  .00000103  00000+0  80556-4 0  9999
2 57760  80.9958 252.7511 0008053 185.3962 174.7109 13.85728261  1787
WILDFIRE 7              
1 57761U 23133E   23258.50555998  .00000069  00000+0  51783-4 0  9996
2 57761  80.9954 252.7621 0004633 211.8246 148.2631 13.84768064  1786
CHECKMATE 10            
1 57762U 23133F   23258.50135706  .00000089  00000+0  69084-4 0  9993
2 57762  80.9967 252.7583 0005576 189.6670 170.4380 13.85221532  1781
WILDFIRE 6              
1 57763U 23133G   23258.50329055  .00000070  00000+0  51856-4 0  9994
2 57763  80.9914 252.7543 0004997 198.7492 161.3481 13.85012728  1785
WILDFIRE 1              
1 57764U 23133H   23258.49967559  .00000071  00000+0  52618-4 0  9998
2 57764  80.9961 252.7554 0006063 182.3549 177.7580 13.85402757  1784
WILDFIRE 9              
1 57765U 23133J   23258.50276590  .00000110  00000+0  87321-4 0  9992
2 57765  81.0001 252.7646 0005149 196.0919 164.0074 13.85069720  1787
WILDFIRE 10             
1 57766U 23133K   23258.50069614  .00000079  00000+0  59744-4 0  9992
2 57766  80.9990 252.7601 0005753 186.4429 173.6655 13.85292754  1780
WILDFIRE 2              
1 57767U 23133L   23258.50439354  .00000079  00000+0  60436-4 0  9995
2 57767  80.9924 252.7571 0004793 204.7818 155.3108 13.84893815  1787
WILDFIRE 8              
1 57768U 23133M   23258.50239912  .00000118  00000+0  94190-4 0  9992
2 57768  80.9914 252.7528 0005268 194.7173 165.3830 13.85109394  1796
WILDFIRE 5              
1 57769U 23133N   23258.50187285  .00000079  00000+0  60172-4 0  9997
2 57769  81.0000 252.7631 0005425 191.9855 168.1173 13.85165800  1785
STARLINK-30397          
1 57771U 23134A   23258.83334491 -.00821264  00000+0 -54344-2 0  9991
2 57771  43.0011  89.7577 0007589 205.5929   1.0856 15.76751282  2929
STARLINK-30354          
1 57772U 23134B   23258.58334491 -.00879506  00000+0 -57295-2 0  9994
2 57772  43.0012  91.2762 0006433 190.0119  35.8665 15.77272557  3053
STARLINK-30383          
1 57773U 23134C   23258.83334491 -.00851601  00000+0 -56608-2 0  9996
2 57773  43.0013  89.7562 0004066 200.7716   6.4639 15.76785302  3081
STARLINK-30384          
1 57774U 23134D   23258.58334491 -.00882072  00000+0 -57448-2 0  9998
2 57774  43.0013  91.2740 0005979 198.1243  28.5520 15.77292377  2817
